[{"OBJECT_NAME":"GRACE-FO 2","OBJECT_ID":"2018-047B","EPOCH":"2026-03-09T22:18:30.629952","MEAN_MOTION":15.37442345,"ECCENTRICITY":0.00130795,"INCLINATION":88.9902,"RA_OF_ASC_NODE":211.5805,"ARG_OF_PERICENTER":129.3432,"MEAN_ANOMALY":230.8984,"EPHEMERIS_TYPE":0,"CLASSIFICATION_TYPE":"U","NORAD_CAT_ID":43477,"ELEMENT_SET_NO":999,"REV_AT_EPOCH":43454,"BSTAR":0.00017253527,"MEAN_MOTION_DOT":6.378e-5,"MEAN_MOTION_DDOT":0},{"OBJECT_NAME":"COSMOS 660","OBJECT_ID":"1974-044A","EPOCH":"2026-03-09T22:24:08.129952","MEAN_MOTION":14.66679771,"ECCENTRICITY":0.04337529,"INCLINATION":82.9408,"RA_OF_ASC_NODE":355.0742,"ARG_OF_PERICENTER":327.8768,"MEAN_ANOMALY":29.6656,"EPHEMERIS_TYPE":0,"CLASSIFICATION_TYPE":"U","NORAD_CAT_ID":7337,"ELEMENT_SET_NO":999,"REV_AT_EPOCH":62706,"BSTAR":0.0004937415,"MEAN_MOTION_DOT":0.0001202,"MEAN_MOTION_DDOT":0}]
